IDEFIX & ARIANE 42P R/B 
1 27422U 02021B   25365.39258358  .00000625  00000+0  25415-3 0  9998
2 27422  98.5807 299.8434 0012493  32.8690 327.3267 14.30966669234258
AQUA                    
1 27424U 02022A   25364.96158943  .00001951  00000+0  40088-3 0  9998
2 27424  98.4061 326.1389 0001917  95.3187 305.7939 14.61780362258696
CZ-4B R/B               
1 27432U 02024C   25365.61334120  .00000135  00000+0  92797-4 0  9993
2 27432  98.8971  54.3167 0049641 215.5038 261.4790 14.14532479219614
MIDORI II (ADEOS-II)    
1 27597U 02056A   25365.47764369  .00000665  00000+0  27957-3 0  9999
2 27597  98.7661 318.5347 0001121 139.0541 221.0725 14.29222062200559
H-2A R/B                
1 27601U 02056E   25365.53399840  .00000796  00000+0  29360-3 0  9995
2 27601  98.3090 323.5451 0070517   5.7034 106.3018 14.33696381204345
CZ-4B R/B               
1 28059U 03049C   25365.57684703  .00000891  00000+0  21564-3 0  9999
2 28059  98.6801 352.8537 0049336  79.7732 280.9022 14.54931319176693
CZ-2C R/B               
1 28222U 04012C   25365.64360394  .00057254  00000+0  78270-3 0  9998
2 28222  97.7392  59.8447 0016623 197.6270 162.4409 15.57102689193667
SL-16 R/B               
1 28353U 04021B   25365.50201851  .00000433  00000+0  24988-3 0  9994
2 28353  71.0010  15.5903 0004223 168.3881 191.7339 14.14584397113195
CZ-4B R/B               
1 28415U 04035C   25365.62409639  .00013147  00000+0  48046-3 0  9992
2 28415  97.3590  35.7184 0032174 207.4423 152.5119 15.27721344169514
CZ-2C R/B               
1 28480U 04046B   25365.61063478  .00000588  00000+0  23388-3 0  9999
2 28480  98.1997 279.8169 0139494 356.7034   3.3216 14.26955215 98795
ARIANE 5 R/B            
1 28499U 04049H   25365.45145255  .00002577  00000+0  29032-3 0  9990
2 28499  98.2525 166.4054 0083810 211.5575 148.0598 14.85071244135669
CZ-2D R/B               
1 28738U 05024B   25365.59201434  .00043589  00000+0  66267-3 0  9996
2 28738  97.3623  13.5482 0003050 274.1896  85.9009 15.54429220129184
