CCSDS_OMM_VERS = 2.0
CREATION_DATE  = 
ORIGINATOR     = 

OBJECT_NAME    = IDEFIX & ARIANE 42P R/B
OBJECT_ID      = 2002-021B
CENTER_NAME    = EARTH
REF_FRAME      = TEME
TIME_SYSTEM    = UTC
MEAN_ELEMENT_THEORY = SGP/SGP4

EPOCH          = 2025-12-31T09:25:19.221312
MEAN_MOTION    = 14.30966669
ECCENTRICITY   = .00124936
INCLINATION    = 98.5807
RA_OF_ASC_NODE = 299.8434
ARG_OF_PERICENTER = 32.8690
MEAN_ANOMALY   = 327.3267

EPHEMERIS_TYPE = 0
CLASSIFICATION_TYPE = U
NORAD_CAT_ID   = 27422
ELEMENT_SET_NO = 999
REV_AT_EPOCH   = 23425
BSTAR          = .25414681E-3
MEAN_MOTION_DOT = .625E-5
MEAN_MOTION_DDOT = 0

CCSDS_OMM_VERS = 2.0
CREATION_DATE  = 
ORIGINATOR     = 

OBJECT_NAME    = AQUA
OBJECT_ID      = 2002-022A
CENTER_NAME    = EARTH
REF_FRAME      = TEME
TIME_SYSTEM    = UTC
MEAN_ELEMENT_THEORY = SGP/SGP4

EPOCH          = 2025-12-30T23:04:41.326752
MEAN_MOTION    = 14.61780362
ECCENTRICITY   = .0001917
INCLINATION    = 98.4061
RA_OF_ASC_NODE = 326.1389
ARG_OF_PERICENTER = 95.3187
MEAN_ANOMALY   = 305.7939

EPHEMERIS_TYPE = 0
CLASSIFICATION_TYPE = U
NORAD_CAT_ID   = 27424
ELEMENT_SET_NO = 999
REV_AT_EPOCH   = 25869
BSTAR          = .40088E-3
MEAN_MOTION_DOT = .1951E-4
MEAN_MOTION_DDOT = 0

CCSDS_OMM_VERS = 2.0
CREATION_DATE  = 
ORIGINATOR     = 

OBJECT_NAME    = CZ-4B R/B
OBJECT_ID      = 2002-024C
CENTER_NAME    = EARTH
REF_FRAME      = TEME
TIME_SYSTEM    = UTC
MEAN_ELEMENT_THEORY = SGP/SGP4

EPOCH          = 2025-12-31T14:43:12.679680
MEAN_MOTION    = 14.14532479
ECCENTRICITY   = .00496419
INCLINATION    = 98.8971
RA_OF_ASC_NODE = 54.3167
ARG_OF_PERICENTER = 215.5038
MEAN_ANOMALY   = 261.4790

EPHEMERIS_TYPE = 0
CLASSIFICATION_TYPE = U
NORAD_CAT_ID   = 27432
ELEMENT_SET_NO = 999
REV_AT_EPOCH   = 21961
BSTAR          = .92796623E-4
MEAN_MOTION_DOT = .135E-5
MEAN_MOTION_DDOT = 0

CCSDS_OMM_VERS = 2.0
CREATION_DATE  = 
ORIGINATOR     = 

OBJECT_NAME    = MIDORI II (ADEOS-II)
OBJECT_ID      = 2002-056A
CENTER_NAME    = EARTH
REF_FRAME      = TEME
TIME_SYSTEM    = UTC
MEAN_ELEMENT_THEORY = SGP/SGP4

EPOCH          = 2025-12-31T11:27:48.414816
MEAN_MOTION    = 14.29222062
ECCENTRICITY   = .00011217
INCLINATION    = 98.7661
RA_OF_ASC_NODE = 318.5347
ARG_OF_PERICENTER = 139.0541
MEAN_ANOMALY   = 221.0725

EPHEMERIS_TYPE = 0
CLASSIFICATION_TYPE = U
NORAD_CAT_ID   = 27597
ELEMENT_SET_NO = 999
REV_AT_EPOCH   = 20055
BSTAR          = .2795725E-3
MEAN_MOTION_DOT = .665E-5
MEAN_MOTION_DDOT = 0

CCSDS_OMM_VERS = 2.0
CREATION_DATE  = 
ORIGINATOR     = 

OBJECT_NAME    = H-2A R/B
OBJECT_ID      = 2002-056E
CENTER_NAME    = EARTH
REF_FRAME      = TEME
TIME_SYSTEM    = UTC
MEAN_ELEMENT_THEORY = SGP/SGP4

EPOCH          = 2025-12-31T12:48:57.461760
MEAN_MOTION    = 14.33696381
ECCENTRICITY   = .00705172
INCLINATION    = 98.3090
RA_OF_ASC_NODE = 323.5451
ARG_OF_PERICENTER = 5.7034
MEAN_ANOMALY   = 106.3018

EPHEMERIS_TYPE = 0
CLASSIFICATION_TYPE = U
NORAD_CAT_ID   = 27601
ELEMENT_SET_NO = 999
REV_AT_EPOCH   = 20434
BSTAR          = .29359978E-3
MEAN_MOTION_DOT = .796E-5
MEAN_MOTION_DDOT = 0

CCSDS_OMM_VERS = 2.0
CREATION_DATE  = 
ORIGINATOR     = 

OBJECT_NAME    = CZ-4B R/B
OBJECT_ID      = 2003-049C
CENTER_NAME    = EARTH
REF_FRAME      = TEME
TIME_SYSTEM    = UTC
MEAN_ELEMENT_THEORY = SGP/SGP4

EPOCH          = 2025-12-31T13:50:39.583392
MEAN_MOTION    = 14.54931319
ECCENTRICITY   = .00493369
INCLINATION    = 98.6801
RA_OF_ASC_NODE = 352.8537
ARG_OF_PERICENTER = 79.7732
MEAN_ANOMALY   = 280.9022

EPHEMERIS_TYPE = 0
CLASSIFICATION_TYPE = U
NORAD_CAT_ID   = 28059
ELEMENT_SET_NO = 999
REV_AT_EPOCH   = 17669
BSTAR          = .21564417E-3
MEAN_MOTION_DOT = .891E-5
MEAN_MOTION_DDOT = 0

CCSDS_OMM_VERS = 2.0
CREATION_DATE  = 
ORIGINATOR     = 

OBJECT_NAME    = CZ-2C R/B
OBJECT_ID      = 2004-012C
CENTER_NAME    = EARTH
REF_FRAME      = TEME
TIME_SYSTEM    = UTC
MEAN_ELEMENT_THEORY = SGP/SGP4

EPOCH          = 2025-12-31T15:26:47.380416
MEAN_MOTION    = 15.57102689
ECCENTRICITY   = .00166232
INCLINATION    = 97.7392
RA_OF_ASC_NODE = 59.8447
ARG_OF_PERICENTER = 197.6270
MEAN_ANOMALY   = 162.4409

EPHEMERIS_TYPE = 0
CLASSIFICATION_TYPE = U
NORAD_CAT_ID   = 28222
ELEMENT_SET_NO = 999
REV_AT_EPOCH   = 19366
BSTAR          = .7826979E-3
MEAN_MOTION_DOT = .57254E-3
MEAN_MOTION_DDOT = 0

CCSDS_OMM_VERS = 2.0
CREATION_DATE  = 
ORIGINATOR     = 

OBJECT_NAME    = SL-16 R/B
OBJECT_ID      = 2004-021B
CENTER_NAME    = EARTH
REF_FRAME      = TEME
TIME_SYSTEM    = UTC
MEAN_ELEMENT_THEORY = SGP/SGP4

EPOCH          = 2025-12-31T12:02:54.399264
MEAN_MOTION    = 14.14584397
ECCENTRICITY   = .00042237
INCLINATION    = 71.0010
RA_OF_ASC_NODE = 15.5903
ARG_OF_PERICENTER = 168.3881
MEAN_ANOMALY   = 191.7339

EPHEMERIS_TYPE = 0
CLASSIFICATION_TYPE = U
NORAD_CAT_ID   = 28353
ELEMENT_SET_NO = 999
REV_AT_EPOCH   = 11319
BSTAR          = .24988192E-3
MEAN_MOTION_DOT = .433E-5
MEAN_MOTION_DDOT = 0

CCSDS_OMM_VERS = 2.0
CREATION_DATE  = 
ORIGINATOR     = 

OBJECT_NAME    = CZ-4B R/B
OBJECT_ID      = 2004-035C
CENTER_NAME    = EARTH
REF_FRAME      = TEME
TIME_SYSTEM    = UTC
MEAN_ELEMENT_THEORY = SGP/SGP4

EPOCH          = 2025-12-31T14:58:41.928096
MEAN_MOTION    = 15.27721344
ECCENTRICITY   = .00321746
INCLINATION    = 97.3590
RA_OF_ASC_NODE = 35.7184
ARG_OF_PERICENTER = 207.4423
MEAN_ANOMALY   = 152.5119

EPHEMERIS_TYPE = 0
CLASSIFICATION_TYPE = U
NORAD_CAT_ID   = 28415
ELEMENT_SET_NO = 999
REV_AT_EPOCH   = 16951
BSTAR          = .48046156E-3
MEAN_MOTION_DOT = .13147E-3
MEAN_MOTION_DDOT = 0

CCSDS_OMM_VERS = 2.0
CREATION_DATE  = 
ORIGINATOR     = 

OBJECT_NAME    = CZ-2C R/B
OBJECT_ID      = 2004-046B
CENTER_NAME    = EARTH
REF_FRAME      = TEME
TIME_SYSTEM    = UTC
MEAN_ELEMENT_THEORY = SGP/SGP4

EPOCH          = 2025-12-31T14:39:18.844992
MEAN_MOTION    = 14.26955215
ECCENTRICITY   = .01394945
INCLINATION    = 98.1997
RA_OF_ASC_NODE = 279.8169
ARG_OF_PERICENTER = 356.7034
MEAN_ANOMALY   = 3.3216

EPHEMERIS_TYPE = 0
CLASSIFICATION_TYPE = U
NORAD_CAT_ID   = 28480
ELEMENT_SET_NO = 999
REV_AT_EPOCH   = 9879
BSTAR          = .23387974E-3
MEAN_MOTION_DOT = .588E-5
MEAN_MOTION_DDOT = 0

CCSDS_OMM_VERS = 2.0
CREATION_DATE  = 
ORIGINATOR     = 

OBJECT_NAME    = ARIANE 5 R/B
OBJECT_ID      = 2004-049H
CENTER_NAME    = EARTH
REF_FRAME      = TEME
TIME_SYSTEM    = UTC
MEAN_ELEMENT_THEORY = SGP/SGP4

EPOCH          = 2025-12-31T10:50:05.500320
MEAN_MOTION    = 14.85071244
ECCENTRICITY   = .00838103
INCLINATION    = 98.2525
RA_OF_ASC_NODE = 166.4054
ARG_OF_PERICENTER = 211.5575
MEAN_ANOMALY   = 148.0598

EPHEMERIS_TYPE = 0
CLASSIFICATION_TYPE = U
NORAD_CAT_ID   = 28499
ELEMENT_SET_NO = 999
REV_AT_EPOCH   = 13566
BSTAR          = .29032155E-3
MEAN_MOTION_DOT = .2577E-4
MEAN_MOTION_DDOT = 0

CCSDS_OMM_VERS = 2.0
CREATION_DATE  = 
ORIGINATOR     = 

OBJECT_NAME    = CZ-2D R/B
OBJECT_ID      = 2005-024B
CENTER_NAME    = EARTH
REF_FRAME      = TEME
TIME_SYSTEM    = UTC
MEAN_ELEMENT_THEORY = SGP/SGP4

EPOCH          = 2025-12-31T14:12:30.038976
MEAN_MOTION    = 15.54429220
ECCENTRICITY   = .00030503
INCLINATION    = 97.3623
RA_OF_ASC_NODE = 13.5482
ARG_OF_PERICENTER = 274.1896
MEAN_ANOMALY   = 85.9009

EPHEMERIS_TYPE = 0
CLASSIFICATION_TYPE = U
NORAD_CAT_ID   = 28738
ELEMENT_SET_NO = 999
REV_AT_EPOCH   = 12918
BSTAR          = .66266711E-3
MEAN_MOTION_DOT = .43589E-3
MEAN_MOTION_DDOT = 0

